[{"OBJECT_NAME":"HELIOS 1B","OBJECT_ID":"1999-064A","EPOCH":"2026-04-28T18:01:49.941408","MEAN_MOTION":14.87871205,"ECCENTRICITY":3.72e-5,"INCLINATION":98.165,"RA_OF_ASC_NODE":22.4566,"ARG_OF_PERICENTER":106.5827,"MEAN_ANOMALY":253.5429,"EPHEMERIS_TYPE":0,"CLASSIFICATION_TYPE":"U","NORAD_CAT_ID":25977,"ELEMENT_SET_NO":999,"REV_AT_EPOCH":69270,"BSTAR":0.00019406,"MEAN_MOTION_DOT":1.717e-5,"MEAN_MOTION_DDOT":0},{"OBJECT_NAME":"TERRA","OBJECT_ID":"1999-068A","EPOCH":"2026-04-28T20:18:19.730016","MEAN_MOTION":14.61062754,"ECCENTRICITY":0.0003053,"INCLINATION":97.9498,"RA_OF_ASC_NODE":170.339,"ARG_OF_PERICENTER":50.5663,"MEAN_ANOMALY":8.3948,"EPHEMERIS_TYPE":0,"CLASSIFICATION_TYPE":"U","NORAD_CAT_ID":25994,"ELEMENT_SET_NO":999,"REV_AT_EPOCH":40240,"BSTAR":9.2318e-5,"MEAN_MOTION_DOT":4.09e-6,"MEAN_MOTION_DDOT":0},{"OBJECT_NAME":"SL-16 R/B","OBJECT_ID":"2000-006B","EPOCH":"2026-04-28T21:24:48.202848","MEAN_MOTION":14.15832491,"ECCENTRICITY":0.0014518,"INCLINATION":71.0042,"RA_OF_ASC_NODE":352.2785,"ARG_OF_PERICENTER":107.5893,"MEAN_ANOMALY":252.6817,"EPHEMERIS_TYPE":0,"CLASSIFICATION_TYPE":"U","NORAD_CAT_ID":26070,"ELEMENT_SET_NO":999,"REV_AT_EPOCH":35566,"BSTAR":0.0001678,"MEAN_MOTION_DOT":2.83e-6,"MEAN_MOTION_DDOT":0},{"OBJECT_NAME":"TITAN 4B R/B","OBJECT_ID":"2000-047B","EPOCH":"2026-04-28T18:43:55.003008","MEAN_MOTION":15.09932031,"ECCENTRICITY":0.0042733,"INCLINATION":67.9882,"RA_OF_ASC_NODE":259.6097,"ARG_OF_PERICENTER":338.424,"MEAN_ANOMALY":21.5106,"EPHEMERIS_TYPE":0,"CLASSIFICATION_TYPE":"U","NORAD_CAT_ID":26474,"ELEMENT_SET_NO":999,"REV_AT_EPOCH":40047,"BSTAR":0.00019492,"MEAN_MOTION_DOT":3.098e-5,"MEAN_MOTION_DDOT":0},{"OBJECT_NAME":"ENVISAT","OBJECT_ID":"2002-009A","EPOCH":"2026-04-28T20:59:46.544064","MEAN_MOTION":14.39052715,"ECCENTRICITY":0.0001145,"INCLINATION":98.3802,"RA_OF_ASC_NODE":71.3033,"ARG_OF_PERICENTER":87.6466,"MEAN_ANOMALY":292.4832,"EPHEMERIS_TYPE":0,"CLASSIFICATION_TYPE":"U","NORAD_CAT_ID":27386,"ELEMENT_SET_NO":999,"REV_AT_EPOCH":26639,"BSTAR":4.6536e-5,"MEAN_MOTION_DOT":1.01e-6,"MEAN_MOTION_DDOT":0},{"OBJECT_NAME":"IDEFIX & ARIANE 42P R/B","OBJECT_ID":"2002-021B","EPOCH":"2026-04-28T20:06:08.944128","MEAN_MOTION":14.31057346,"ECCENTRICITY":0.0012699,"INCLINATION":98.5923,"RA_OF_ASC_NODE":56.8627,"ARG_OF_PERICENTER":43.863,"MEAN_ANOMALY":316.3559,"EPHEMERIS_TYPE":0,"CLASSIFICATION_TYPE":"U","NORAD_CAT_ID":27422,"ELEMENT_SET_NO":999,"REV_AT_EPOCH":25119,"BSTAR":0.00011265,"MEAN_MOTION_DOT":2.53e-6,"MEAN_MOTION_DDOT":0},{"OBJECT_NAME":"AQUA","OBJECT_ID":"2002-022A","EPOCH":"2026-04-28T20:11:19.951296","MEAN_MOTION":14.62079379,"ECCENTRICITY":0.0002067,"INCLINATION":98.4247,"RA_OF_ASC_NODE":87.1514,"ARG_OF_PERICENTER":92.752,"MEAN_ANOMALY":282.8517,"EPHEMERIS_TYPE":0,"CLASSIFICATION_TYPE":"U","NORAD_CAT_ID":27424,"ELEMENT_SET_NO":999,"REV_AT_EPOCH":27606,"BSTAR":0.00019365,"MEAN_MOTION_DOT":9.23e-6,"MEAN_MOTION_DDOT":0},{"OBJECT_NAME":"CZ-4B R/B","OBJECT_ID":"2002-024C","EPOCH":"2026-04-28T21:23:04.787232","MEAN_MOTION":14.14556105,"ECCENTRICITY":0.0049224,"INCLINATION":98.874,"RA_OF_ASC_NODE":172.0203,"ARG_OF_PERICENTER":239.7485,"MEAN_ANOMALY":294.352,"EPHEMERIS_TYPE":0,"CLASSIFICATION_TYPE":"U","NORAD_CAT_ID":27432,"ELEMENT_SET_NO":999,"REV_AT_EPOCH":23633,"BSTAR":4.0058e-5,"MEAN_MOTION_DOT":3.3e-7,"MEAN_MOTION_DDOT":0},{"OBJECT_NAME":"MIDORI II (ADEOS-II)","OBJECT_ID":"2002-056A","EPOCH":"2026-04-28T20:33:16.377120","MEAN_MOTION":14.29320578,"ECCENTRICITY":9.45e-5,"INCLINATION":98.7844,"RA_OF_ASC_NODE":77.7083,"ARG_OF_PERICENTER":141.6035,"MEAN_ANOMALY":218.5213,"EPHEMERIS_TYPE":0,"CLASSIFICATION_TYPE":"U","NORAD_CAT_ID":27597,"ELEMENT_SET_NO":999,"REV_AT_EPOCH":21746,"BSTAR":0.00013547,"MEAN_MOTION_DOT":2.99e-6,"MEAN_MOTION_DDOT":0},{"OBJECT_NAME":"H-2A R/B","OBJECT_ID":"2002-056E","EPOCH":"2026-04-28T21:11:17.432160","MEAN_MOTION":14.33795595,"ECCENTRICITY":0.0070558,"INCLINATION":98.3279,"RA_OF_ASC_NODE":77.3648,"ARG_OF_PERICENTER":13.1231,"MEAN_ANOMALY":44.5421,"EPHEMERIS_TYPE":0,"CLASSIFICATION_TYPE":"U","NORAD_CAT_ID":27601,"ELEMENT_SET_NO":999,"REV_AT_EPOCH":22130,"BSTAR":0.00013642,"MEAN_MOTION_DOT":3.48e-6,"MEAN_MOTION_DDOT":0},{"OBJECT_NAME":"CZ-4B R/B","OBJECT_ID":"2003-049C","EPOCH":"2026-04-28T20:36:03.282048","MEAN_MOTION":14.55062725,"ECCENTRICITY":0.004932,"INCLINATION":98.6898,"RA_OF_ASC_NODE":115.7451,"ARG_OF_PERICENTER":78.8967,"MEAN_ANOMALY":281.7769,"EPHEMERIS_TYPE":0,"CLASSIFICATION_TYPE":"U","NORAD_CAT_ID":28059,"ELEMENT_SET_NO":999,"REV_AT_EPOCH":19389,"BSTAR":0.00011029,"MEAN_MOTION_DOT":4.32e-6,"MEAN_MOTION_DDOT":0},{"OBJECT_NAME":"CZ-2C R/B","OBJECT_ID":"2004-012C","EPOCH":"2026-04-28T17:13:25.898304","MEAN_MOTION":15.70803884,"ECCENTRICITY":0.0013371,"INCLINATION":97.7128,"RA_OF_ASC_NODE":188.9668,"ARG_OF_PERICENTER":126.2714,"MEAN_ANOMALY":233.9785,"EPHEMERIS_TYPE":0,"CLASSIFICATION_TYPE":"U","NORAD_CAT_ID":28222,"ELEMENT_SET_NO":999,"REV_AT_EPOCH":21211,"BSTAR":0.00059288,"MEAN_MOTION_DOT":0.00074314,"MEAN_MOTION_DDOT":0},{"OBJECT_NAME":"SL-16 R/B","OBJECT_ID":"2004-021B","EPOCH":"2026-04-28T17:36:19.253952","MEAN_MOTION":14.14603435,"ECCENTRICITY":0.0006908,"INCLINATION":70.9981,"RA_OF_ASC_NODE":127.4743,"ARG_OF_PERICENTER":306.3252,"MEAN_ANOMALY":53.7232,"EPHEMERIS_TYPE":0,"CLASSIFICATION_TYPE":"U","NORAD_CAT_ID":28353,"ELEMENT_SET_NO":999,"REV_AT_EPOCH":12991,"BSTAR":-8.2187e-5,"MEAN_MOTION_DOT":-2.06e-6,"MEAN_MOTION_DDOT":0},{"OBJECT_NAME":"CZ-4B R/B","OBJECT_ID":"2004-035C","EPOCH":"2026-04-28T19:51:17.752320","MEAN_MOTION":15.29863305,"ECCENTRICITY":0.0032621,"INCLINATION":97.3417,"RA_OF_ASC_NODE":152.4751,"ARG_OF_PERICENTER":148.0354,"MEAN_ANOMALY":212.2874,"EPHEMERIS_TYPE":0,"CLASSIFICATION_TYPE":"U","NORAD_CAT_ID":28415,"ELEMENT_SET_NO":999,"REV_AT_EPOCH":18757,"BSTAR":0.0002587,"MEAN_MOTION_DOT":7.525e-5,"MEAN_MOTION_DDOT":0},{"OBJECT_NAME":"CZ-2C R/B","OBJECT_ID":"2004-046B","EPOCH":"2026-04-28T16:32:53.886048","MEAN_MOTION":14.27011731,"ECCENTRICITY":0.0139641,"INCLINATION":98.197,"RA_OF_ASC_NODE":30.5565,"ARG_OF_PERICENTER":7.5442,"MEAN_ANOMALY":352.7797,"EPHEMERIS_TYPE":0,"CLASSIFICATION_TYPE":"U","NORAD_CAT_ID":28480,"ELEMENT_SET_NO":999,"REV_AT_EPOCH":11563,"BSTAR":8.9185e-5,"MEAN_MOTION_DOT":1.99e-6,"MEAN_MOTION_DDOT":0},{"OBJECT_NAME":"ARIANE 5 R/B","OBJECT_ID":"2004-049H","EPOCH":"2026-04-28T11:36:58.432896","MEAN_MOTION":14.8536049,"ECCENTRICITY":0.0083849,"INCLINATION":98.269,"RA_OF_ASC_NODE":288.8285,"ARG_OF_PERICENTER":188.8452,"MEAN_ANOMALY":171.1289,"EPHEMERIS_TYPE":0,"CLASSIFICATION_TYPE":"U","NORAD_CAT_ID":28499,"ELEMENT_SET_NO":999,"REV_AT_EPOCH":15318,"BSTAR":0.00013461,"MEAN_MOTION_DOT":1.168e-5,"MEAN_MOTION_DDOT":0},{"OBJECT_NAME":"CZ-2D R/B","OBJECT_ID":"2005-024B","EPOCH":"2026-04-28T14:23:28.701600","MEAN_MOTION":15.64641643,"ECCENTRICITY":0.0005156,"INCLINATION":97.3534,"RA_OF_ASC_NODE":135.7394,"ARG_OF_PERICENTER":162.9457,"MEAN_ANOMALY":197.1976,"EPHEMERIS_TYPE":0,"CLASSIFICATION_TYPE":"U","NORAD_CAT_ID":28738,"ELEMENT_SET_NO":999,"REV_AT_EPOCH":14757,"BSTAR":0.00046424,"MEAN_MOTION_DOT":0.00044953,"MEAN_MOTION_DDOT":0}]
