HELIOS 1B               
1 25977U 99064A   26118.75127247  .00001717  00000+0  19406-3 0  9999
2 25977  98.1650  22.4566 0000372 106.5827 253.5429 14.87871205692704
TERRA                   
1 25994U 99068A   26118.84606169  .00000409  00000+0  92318-4 0  9998
2 25994  97.9498 170.3390 0003053  50.5663   8.3948 14.61062754402404
SL-16 R/B               
1 26070U 00006B   26118.89222457  .00000283  00000+0  16780-3 0  9995
2 26070  71.0042 352.2785 0014518 107.5893 252.6817 14.15832491355669
TITAN 4B R/B            
1 26474U 00047B   26118.78049772  .00003098  00000+0  19492-3 0  9993
2 26474  67.9882 259.6097 0042733 338.4240  21.5106 15.09932031400479
ENVISAT                 
1 27386U 02009A   26118.87484426  .00000101  00000+0  46536-4 0  9997
2 27386  98.3802  71.3033 0001145  87.6466 292.4832 14.39052715266396
IDEFIX & ARIANE 42P R/B 
1 27422U 02021B   26118.83760352  .00000253  00000+0  11265-3 0  9991
2 27422  98.5923  56.8627 0012699  43.8630 316.3559 14.31057346251194
AQUA                    
1 27424U 02022A   26118.84120314  .00000923  00000+0  19365-3 0  9996
2 27424  98.4247  87.1514 0002067  92.7520 282.8517 14.62079379276063
CZ-4B R/B               
1 27432U 02024C   26118.89102763  .00000033  00000+0  40058-4 0  9996
2 27432  98.8740 172.0203 0049224 239.7485 294.3520 14.14556105236334
MIDORI II (ADEOS-II)    
1 27597U 02056A   26118.85643955  .00000299  00000+0  13547-3 0  9998
2 27597  98.7844  77.7083 0000945 141.6035 218.5213 14.29320578217465
H-2A R/B                
1 27601U 02056E   26118.88284065  .00000348  00000+0  13642-3 0  9991
2 27601  98.3279  77.3648 0070558  13.1231  44.5421 14.33795595221306
CZ-4B R/B               
1 28059U 03049C   26118.85837132  .00000432  00000+0  11029-3 0  9999
2 28059  98.6898 115.7451 0049320  78.8967 281.7769 14.55062725193898
CZ-2C R/B               
1 28222U 04012C   26118.71766086  .00074314  00000+0  59288-3 0  9995
2 28222  97.7128 188.9668 0013371 126.2714 233.9785 15.70803884212114
SL-16 R/B               
1 28353U 04021B   26118.73355618 -.00000206  00000+0 -82187-4 0  9993
2 28353  70.9981 127.4743 0006908 306.3252  53.7232 14.14603435129914
CZ-4B R/B               
1 28415U 04035C   26118.82728880  .00007525  00000+0  25870-3 0  9996
2 28415  97.3417 152.4751 0032621 148.0354 212.2874 15.29863305187573
CZ-2C R/B               
1 28480U 04046B   26118.68951257  .00000199  00000+0  89185-4 0  9990
2 28480  98.1970  30.5565 0139641   7.5442 352.7797 14.27011731115631
ARIANE 5 R/B            
1 28499U 04049H   26118.48400964  .00001168  00000+0  13461-3 0  9995
2 28499  98.2690 288.8285 0083849 188.8452 171.1289 14.85360490153184
CZ-2D R/B               
1 28738U 05024B   26118.59963775  .00044953  00000+0  46424-3 0  9995
2 28738  97.3534 135.7394 0005156 162.9457 197.1976 15.64641643147578
